     3.04           N: GNSS NAV DATA    R: GLONASS          RINEX VERSION / TYPE
TPP 5.1.1                               20240331 235934 UTC PGM / RUN BY / DATE 
                                                            COMMENT             
                                                            COMMENT             
                                                            COMMENT             
GLUT  -.5587935448E-08  .000000000E+00  86400 2308          TIME SYSTEM CORR    
    18                                                      LEAP SECONDS        
                                                            END OF HEADER       
R15 2024 04 01 13 15 00  .808676704764E-04  .000000000000E+00  .133200000000E+06
     -.226865747070E+05  .107503986359E+01  .000000000000E+00  .000000000000E+00
     -.831429248047E+04  .344185829163E+00  .000000000000E+00  .000000000000E+00
      .820228564453E+04  .332771015167E+01 -.279396772385E-08  .000000000000E+00
R16 2024 04 01 13 15 00  .244537368417E-04  .000000000000E+00  .133200000000E+06
     -.237010522461E+05 -.130445671082E+01  .000000000000E+00  .000000000000E+00
      .194192382813E+03 -.750846862793E-01 -.186264514923E-08 -.100000000000E+01
     -.946832275391E+04  .325849342346E+01  .000000000000E+00  .000000000000E+00
R17 2024 04 01 13 15 00  .741453841329E-04  .272848410532E-11  .133200000000E+06
      .261363671875E+04  .166856670380E+01 -.186264514923E-08  .000000000000E+00
     -.163641596680E+05 -.207364368439E+01 -.279396772385E-08  .400000000000E+01
     -.193994350586E+05  .197039222717E+01  .000000000000E+00  .000000000000E+00
R18 2024 04 01 13 15 00  .134998001158E-03  .909494701773E-12  .133200000000E+06
     -.102885004883E+05  .214043712616E+01 -.931322574615E-09  .000000000000E+00
     -.407951660156E+04 -.231495380402E+01 -.279396772385E-08 -.300000000000E+01
     -.229747377930E+05 -.541995048523E+00  .000000000000E+00  .000000000000E+00
R19 2024 04 01 13 15 00 -.271511264145E-03 -.909494701773E-12  .133200000000E+06
     -.179495781250E+05  .165857124329E+01  .000000000000E+00  .000000000000E+00
      .834435546875E+04 -.146694660187E+01 -.186264514923E-08  .300000000000E+01
     -.160940844727E+05 -.261033916473E+01  .931322574615E-09  .000000000000E+00
R20 2024 04 01 13 15 00 -.110642053187E-03  .000000000000E+00  .133200000000E+06
     -.161731372070E+05 -.197455406189E+00  .000000000000E+00  .000000000000E+00
      .193533632813E+05  .566937446594E+00  .931322574615E-09  .200000000000E+01
      .398563867188E+04 -.355414676666E+01  .000000000000E+00  .000000000000E+00
R24 2024 04 01 13 15 00 -.500865280628E-04 -.181898940355E-11  .133200000000E+06
      .149961806641E+05  .278701782227E+00 -.931322574615E-09  .000000000000E+00
     -.201439101563E+05 -.576082229614E+00  .000000000000E+00  .200000000000E+01
     -.448522460938E+04  .350749969482E+01 -.931322574615E-09  .000000000000E+00
R13 2024 04 01 13 15 00 -.458536669612E-04  .000000000000E+00  .133740000000E+06
      .126370747070E+05  .280553340912E+01  .931322574615E-09  .000000000000E+00
     -.786554345703E+04  .430719375610E+00  .186264514923E-08 -.200000000000E+01
      .206981650391E+05 -.154757118225E+01 -.931322574615E-09  .000000000000E+00
R12 2024 04 01 13 15 00  .384813174605E-04  .909494701773E-12  .133740000000E+06
      .235924545898E+05  .133126068115E+01  .931322574615E-09  .000000000000E+00
     -.299539550781E+03  .109887123108E+00  .186264514923E-08 -.100000000000E+01
      .973211181641E+04 -.322930049896E+01  .000000000000E+00  .000000000000E+00
R21 2024 04 01 13 15 00 -.892197713256E-04 -.363797880709E-11  .133740000000E+06
     -.271824316406E+04 -.169112014771E+01  .931322574615E-09  .000000000000E+00
      .162348720703E+05  .207191276550E+01  .186264514923E-08  .400000000000E+01
      .194753491211E+05 -.196444797516E+01  .000000000000E+00  .000000000000E+00
R05 2024 04 01 13 15 00  .129294581711E-03  .909494701773E-12  .133740000000E+06
     -.110620834961E+05 -.100708293915E+01  .931322574615E-09  .000000000000E+00
      .459485839844E+03 -.298034191132E+01  .186264514923E-08  .100000000000E+01
      .229965546875E+05 -.427053451538E+00 -.186264514923E-08  .000000000000E+00
R22 2024 04 01 13 15 00  .115167349577E-03  .909494701773E-12  .133740000000E+06
      .112026762695E+05 -.215789508820E+01  .931322574615E-09  .000000000000E+00
      .374816894531E+04  .221547603607E+01  .279396772385E-08 -.300000000000E+01
      .226296303711E+05  .703640937805E+00  .000000000000E+00  .000000000000E+00
R14 2024 04 01 13 15 00  .263052061200E-04  .000000000000E+00  .133740000000E+06
     -.865875390625E+04  .279809284210E+01  .000000000000E+00  .000000000000E+00
     -.118618125000E+05  .563033103943E+00  .931322574615E-09 -.700000000000E+01
      .208696728516E+05  .147958183289E+01 -.279396772385E-08  .000000000000E+00
R23 2024 04 01 13 15 00 -.116603448987E-03 -.909494701773E-12  .133740000000E+06
      .185277900391E+05 -.138112735748E+01  .000000000000E+00  .000000000000E+00
     -.113708603516E+05  .121633720398E+01  .931322574615E-09  .300000000000E+01
      .133254912109E+05  .295678424835E+01 -.931322574615E-09  .000000000000E+00
R04 2024 04 01 13 15 00  .230128876865E-03  .181898940355E-11  .133740000000E+06
     -.127358999023E+05 -.790481567383E+00  .000000000000E+00  .000000000000E+00
     -.162678618164E+05 -.189427089691E+01  .000000000000E+00  .600000000000E+01
      .149893208008E+05 -.273489570618E+01 -.279396772385E-08  .000000000000E+00
R13 2024 04 01 13 15 00 -.458536669612E-04  .000000000000E+00  .134340000000E+06
      .126370747070E+05  .280553340912E+01  .931322574615E-09  .000000000000E+00
     -.786554345703E+04  .430719375610E+00  .186264514923E-08 -.200000000000E+01
      .206981650391E+05 -.154757118225E+01 -.931322574615E-09  .000000000000E+00
R12 2024 04 01 13 15 00  .384813174605E-04  .909494701773E-12  .134340000000E+06
      .235924545898E+05  .133126068115E+01  .931322574615E-09  .000000000000E+00
     -.299539550781E+03  .109887123108E+00  .186264514923E-08 -.100000000000E+01
      .973211181641E+04 -.322930049896E+01  .000000000000E+00  .000000000000E+00
R21 2024 04 01 13 15 00 -.892197713256E-04 -.363797880709E-11  .134340000000E+06
     -.271824316406E+04 -.169112014771E+01  .931322574615E-09  .000000000000E+00
      .162348720703E+05  .207191276550E+01  .186264514923E-08  .400000000000E+01
      .194753491211E+05 -.196444797516E+01  .000000000000E+00  .000000000000E+00
R05 2024 04 01 13 15 00  .129294581711E-03  .909494701773E-12  .134340000000E+06
     -.110620834961E+05 -.100708293915E+01  .931322574615E-09  .000000000000E+00
      .459485839844E+03 -.298034191132E+01  .186264514923E-08  .100000000000E+01
      .229965546875E+05 -.427053451538E+00 -.186264514923E-08  .000000000000E+00
R22 2024 04 01 13 15 00  .115167349577E-03  .909494701773E-12  .134340000000E+06
      .112026762695E+05 -.215789508820E+01  .931322574615E-09  .000000000000E+00
      .374816894531E+04  .221547603607E+01  .279396772385E-08 -.300000000000E+01
      .226296303711E+05  .703640937805E+00  .000000000000E+00  .000000000000E+00
R14 2024 04 01 13 15 00  .263052061200E-04  .000000000000E+00  .134340000000E+06
     -.865875390625E+04  .279809284210E+01  .000000000000E+00  .000000000000E+00
     -.118618125000E+05  .563033103943E+00  .931322574615E-09 -.700000000000E+01
      .208696728516E+05  .147958183289E+01 -.279396772385E-08  .000000000000E+00
R23 2024 04 01 13 15 00 -.116603448987E-03 -.909494701773E-12  .134340000000E+06
      .185277900391E+05 -.138112735748E+01  .000000000000E+00  .000000000000E+00
     -.113708603516E+05  .121633720398E+01  .931322574615E-09  .300000000000E+01
      .133254912109E+05  .295678424835E+01 -.931322574615E-09  .000000000000E+00
R07 2024 04 01 13 15 00  .792536884546E-04  .909494701773E-12  .134610000000E+06
      .813865478516E+04  .162990570068E+00  .931322574615E-09  .000000000000E+00
      .242009487305E+05 -.893392562866E-01  .931322574615E-09  .500000000000E+01
      .280709472656E+03  .357428932190E+01  .186264514923E-08  .000000000000E+00
R13 2024 04 01 13 15 00 -.458536669612E-04  .000000000000E+00  .134940000000E+06
      .126370747070E+05  .280553340912E+01  .931322574615E-09  .000000000000E+00
     -.786554345703E+04  .430719375610E+00  .186264514923E-08 -.200000000000E+01
      .206981650391E+05 -.154757118225E+01 -.931322574615E-09  .000000000000E+00
R12 2024 04 01 13 15 00  .384813174605E-04  .909494701773E-12  .134940000000E+06
      .235924545898E+05  .133126068115E+01  .931322574615E-09  .000000000000E+00
     -.299539550781E+03  .109887123108E+00  .186264514923E-08 -.100000000000E+01
      .973211181641E+04 -.322930049896E+01  .000000000000E+00  .000000000000E+00
R21 2024 04 01 13 15 00 -.892197713256E-04 -.363797880709E-11  .134940000000E+06
     -.271824316406E+04 -.169112014771E+01  .931322574615E-09  .000000000000E+00
      .162348720703E+05  .207191276550E+01  .186264514923E-08  .400000000000E+01
      .194753491211E+05 -.196444797516E+01  .000000000000E+00  .000000000000E+00
R05 2024 04 01 13 15 00  .129294581711E-03  .909494701773E-12  .134940000000E+06
     -.110620834961E+05 -.100708293915E+01  .931322574615E-09  .000000000000E+00
      .459485839844E+03 -.298034191132E+01  .186264514923E-08  .100000000000E+01
      .229965546875E+05 -.427053451538E+00 -.186264514923E-08  .000000000000E+00
R22 2024 04 01 13 15 00  .115167349577E-03  .909494701773E-12  .134940000000E+06
      .112026762695E+05 -.215789508820E+01  .931322574615E-09  .000000000000E+00
      .374816894531E+04  .221547603607E+01  .279396772385E-08 -.300000000000E+01
      .226296303711E+05  .703640937805E+00  .000000000000E+00  .000000000000E+00
